NORAD_CAT_ID,OBJECT_NAME,OBJECT_TYPE,EPOCH,MEAN_MOTION,ECCENTRICITY,INCLINATION,RA_OF_ASC_NODE,ARG_OF_PERICENTER,MEAN_ANOMALY,BSTAR,MEAN_MOTION_DOT,MEAN_MOTION_DDOT,TLE_LINE0,TLE_LINE1,TLE_LINE2,SEMIMAJOR_AXIS,PERIOD,APOGEE,PERIGEE,DECAYED
56481.0,STARLINK-6222,PAYLOAD,2023-05-30 11:11:31,15.69940757,0.0003271,69.999,189.7896,263.6332,96.4491,0.000122,0.00014492,0.0,0 STARLINK-6222,1 56481U 23064AK  23150.46634211  .00014492  00000-0  12200-3 0  9995,2 56481  69.9990 189.7896 0003271 263.6332  96.4491 15.69940757  3474,6737.203,91.723,361.272,356.865,0.0
56481.0,STARLINK-6222,PAYLOAD,2023-05-30 12:43:17,15.69941592,0.0003289,69.9989,189.6106,264.0724,96.0096,0.00011994,0.00014244,0.0,0 STARLINK-6222,1 56481U 23064AK  23150.53005848  .00014244  00000-0  11994-3 0  9995,2 56481  69.9989 189.6106 0003289 264.0724  96.0096 15.69941592  3132,6737.201,91.723,361.282,356.85,0.0
56481.0,STARLINK-6222,PAYLOAD,2023-05-30 18:50:17,15.69934476,0.0003315,69.999,188.894,265.4459,94.6358,8.1254e-05,9.573e-05,0.0,0 STARLINK-6222,1 56481U 23064AK  23150.78492652  .00009573  00000-0  81254-4 0  9991,2 56481  69.9990 188.8940 0003315 265.4459  94.6358 15.69934476  3522,6737.221,91.724,361.32,356.853,0.0
56481.0,STARLINK-6222,PAYLOAD,2023-05-30 20:22:02,15.6993533,0.0003314,69.999,188.7148,265.5137,94.568,8.541e-05,0.00010074,0.0,0 STARLINK-6222,1 56481U 23064AK  23150.84864293  .00010074  00000-0  85410-4 0  9998,2 56481  69.9990 188.7148 0003314 265.5137  94.5680 15.69935330  3183,6737.219,91.724,361.317,356.851,0.0
56481.0,STARLINK-6222,PAYLOAD,2023-05-31 10:07:48,15.69936249,0.0003268,69.999,187.1025,266.7661,93.316,7.9353e-05,9.344e-05,0.0,0 STARLINK-6222,1 56481U 23064AK  23151.42209247  .00009344  00000-0  79353-4 0  9992,2 56481  69.9990 187.1025 0003268 266.7661  93.3160 15.69936249  3622,6737.216,91.723,361.283,356.88,0.0
56481.0,STARLINK-6222,PAYLOAD,2023-05-31 11:39:33,15.69938573,0.0003275,69.999,186.9233,266.0953,93.9869,9.3401e-05,0.00011039,0.0,0 STARLINK-6222,1 56481U 23064AK  23151.48580882  .00011039  00000-0  93401-4 0  9999,2 56481  69.9990 186.9233 0003275 266.0953  93.9869 15.69938573  3281,6737.21,91.723,361.281,356.868,0.0
56481.0,STARLINK-6222,PAYLOAD,2023-05-31 20:50:04,15.69923237,0.0003276,69.9988,185.8483,269.6391,90.4429,1.185e-05,1.212e-05,0.0,0 STARLINK-6222,1 56481U 23064AK  23151.86811072  .00001212  00000-0  11850-4 0  9999,2 56481  69.9988 185.8483 0003276 269.6391  90.4429 15.69923237  3341,6737.254,91.724,361.326,356.911,0.0
56481.0,STARLINK-6222,PAYLOAD,2023-06-01 02:57:05,15.69926198,0.0003257,69.9985,185.1318,266.6264,93.4559,1.3218e-05,1.377e-05,0.0,0 STARLINK-6222,1 56481U 23064AK  23152.12297727  .00001377  00000-0  13218-4 0  9996,2 56481  69.9985 185.1318 0003257 266.6264  93.4559 15.69926198  3732,6737.245,91.724,361.304,356.916,0.0
56481.0,STARLINK-6222,PAYLOAD,2023-06-01 10:35:50,15.69931363,0.0003251,69.9982,184.2361,266.602,93.4804,2.4488e-05,2.734e-05,0.0,0 STARLINK-6222,1 56481U 23064AK  23152.44155857  .00002734  00000-0  24488-4 0  9997,2 56481  69.9982 184.2361 0003251 266.6020  93.4804 15.69931363  3431,6737.23,91.724,361.286,356.905,0.0
56481.0,STARLINK-6222,PAYLOAD,2023-06-01 19:46:21,15.69925132,0.0003222,69.9982,183.1609,268.9887,91.0939,6.5837e-06,5.79e-06,0.0,0 STARLINK-6222,1 56481U 23064AK  23152.82386109  .00000579  00000-0  65837-5 0  9994,2 56481  69.9982 183.1609 0003222 268.9887  91.0939 15.69925132  3494,6737.248,91.724,361.284,356.942,0.0
56481.0,STARLINK-6222,PAYLOAD,2023-06-02 09:32:08,15.69919166,0.0003168,69.9977,181.5486,267.9157,92.1675,5.1372e-06,4.05e-06,0.0,0 STARLINK-6222,1 56481U 23064AK  23153.39731587  .00000405  00000-0  51372-5 0  9998,2 56481  69.9977 181.5486 0003168 267.9157  92.1675 15.69919166  3939,6737.265,91.724,361.265,356.996,0.0
56481.0,STARLINK-6222,PAYLOAD,2023-06-02 11:03:52,15.69928142,0.0003235,69.9977,181.3693,268.4029,91.6797,1.742e-05,1.883e-05,0.0,0 STARLINK-6222,1 56481U 23064AK  23153.46102757  .00001883  00000-0  17420-4 0  9993,2 56481  69.9977 181.3693 0003235 268.4029  91.6797 15.69928142  3591,6737.24,91.724,361.284,356.925,0.0
56481.0,STARLINK-6222,PAYLOAD,2023-06-03 02:21:24,15.69922983,0.0003279,69.9974,179.5778,269.0513,91.0307,1.3377e-05,1.396e-05,0.0,0 STARLINK-6222,1 56481U 23064AK  23154.09819831  .00001396  00000-0  13377-4 0  9997,2 56481  69.9974 179.5778 0003279 269.0513  91.0307 15.69922983  4043,6737.254,91.724,361.328,356.91,0.0
56481.0,STARLINK-6222,PAYLOAD,2023-06-03 11:31:55,15.69923784,0.0003302,69.9975,178.5034,270.154,89.9277,8.6353e-06,8.26e-06,0.0,0 STARLINK-6222,1 56481U 23064AK  23154.48049910  .00000826  00000-0  86353-5 0  9995,2 56481  69.9975 178.5034 0003302 270.1540  89.9277 15.69923784  3757,6737.252,91.724,361.342,356.892,0.0
56481.0,STARLINK-6222,PAYLOAD,2023-06-03 19:10:40,15.69929203,0.0003535,69.9976,177.609,266.0737,94.0054,2.3246e-05,2.584e-05,0.0,0 STARLINK-6222,1 56481U 23064AK  23154.79907888  .00002584  00000-0  23246-4 0  9990,2 56481  69.9976 177.6090 0003535 266.0737  94.0054 15.69929203  3808,6737.237,91.724,361.483,356.72,0.0
56481.0,STARLINK-6222,PAYLOAD,2023-06-04 02:49:26,15.69924775,0.0003466,69.9987,176.7126,266.4871,93.5929,3.3463e-06,1.9e-06,0.0,0 STARLINK-6222,1 56481U 23064AK  23155.11766481  .00000190  00000-0  33463-5 0  9993,2 56481  69.9987 176.7126 0003466 266.4871  93.5929 15.69924775  4205,6737.249,91.724,361.449,356.779,0.0
56481.0,STARLINK-6222,PAYLOAD,2023-06-04 13:31:41,15.69930511,0.0003396,69.9975,175.4584,264.839,95.2418,1.2877e-05,1.336e-05,0.0,0 STARLINK-6222,1 56481U 23064AK  23155.56367878  .00001336  00000-0  12877-4 0  9997,2 56481  69.9975 175.4584 0003396 264.8390  95.2418 15.69930511  3921,6737.233,91.724,361.386,356.81,0.0
56481.0,STARLINK-6222,PAYLOAD,2023-06-04 15:03:26,15.6993248,0.0003423,69.9974,175.2792,264.7514,95.3291,1.514e-05,1.609e-05,0.0,0 STARLINK-6222,1 56481U 23064AK  23155.62739371  .00001609  00000-0  15140-4 0  9994,2 56481  69.9974 175.2792 0003423 264.7514  95.3291 15.69932480  3935,6737.227,91.724,361.398,356.786,0.0
56481.0,STARLINK-6222,PAYLOAD,2023-06-05 04:49:13,15.6991668,0.0002986,69.998,173.667,258.9532,101.1328,1.9481e-05,2.13e-05,0.0,0 STARLINK-6222,1 56481U 23064AK  23156.20085451  .00002130  00000-0  19481-4 0  9994,2 56481  69.9980 173.6670 0002986 258.9532 101.1328 15.69916680  4377,6737.272,91.725,361.149,357.126,0.0
56481.0,STARLINK-6222,PAYLOAD,2023-06-05 12:27:59,15.69926434,0.000322,69.9972,172.7705,262.7343,97.3487,1.7386e-05,1.878e-05,0.0,0 STARLINK-6222,1 56481U 23064AK  23156.51943358  .00001878  00000-0  17386-4 0  9997,2 56481  69.9972 172.7705 0003220 262.7343  97.3487 15.69926434  4079,6737.244,91.724,361.279,356.94,0.0
56481.0,STARLINK-6222,PAYLOAD,2023-06-05 18:34:59,15.69923359,0.0003066,69.9987,172.0546,265.7855,94.2991,1.198e-06,-6.9e-07,0.0,0 STARLINK-6222,1 56481U 23064AK  23156.77430212 -.00000069  00000-0  11980-5 0  9992,2 56481  69.9987 172.0546 0003066 265.7855  94.2991 15.69923359  4114,6737.253,91.724,361.184,357.053,0.0
56481.0,STARLINK-6222,PAYLOAD,2023-06-06 11:24:15,15.69926042,0.0003246,69.9987,170.0844,265.3576,94.7249,1.2512e-05,1.292e-05,0.0,0 STARLINK-6222,1 56481U 23064AK  23157.47518410  .00001292  00000-0  12512-4 0  9996,2 56481  69.9987 170.0844 0003246 265.3576  94.7249 15.69926042  4224,6737.246,91.724,361.298,356.924,0.0
56481.0,STARLINK-6222,PAYLOAD,2023-06-06 12:56:00,15.69929042,0.0003291,69.9988,169.9055,266.4475,93.6345,2.0139e-05,2.21e-05,0.0,0 STARLINK-6222,1 56481U 23064AK  23157.53889960  .00002210  00000-0  20139-4 0  9999,2 56481  69.9988 169.9055 0003291 266.4475  93.6345 15.69929042  4583,6737.237,91.724,361.319,356.885,0.0
56481.0,STARLINK-6222,PAYLOAD,2023-06-07 10:20:33,15.69921519,0.0003284,69.9992,167.3981,268.319,91.763,6.2977e-06,5.45e-06,0.0,0 STARLINK-6222,1 56481U 23064AK  23158.43093859  .00000545  00000-0  62977-5 0  9999,2 56481  69.9992 167.3981 0003284 268.3190  91.7630 15.69921519  4728,6737.259,91.724,361.336,356.911,0.0
56481.0,STARLINK-6222,PAYLOAD,2023-06-07 13:24:03,15.69926674,0.0003204,69.9985,167.0423,262.326,97.7572,1.0293e-05,1.025e-05,0.0,0 STARLINK-6222,1 56481U 23064AK  23158.55837036  .00001025  00000-0  10293-4 0  9992,2 56481  69.9985 167.0423 0003204 262.3260  97.7572 15.69926674  4393,6737.244,91.724,361.267,356.95,0.0
56481.0,STARLINK-6222,PAYLOAD,2023-06-07 17:59:18,15.69931326,0.0003484,69.9993,166.5015,264.3824,95.6974,2.5734e-05,2.883e-05,0.0,0 STARLINK-6222,1 56481U 23064AK  23158.74951631  .00002883  00000-0  25734-4 0  9990,2 56481  69.9993 166.5015 0003484 264.3824  95.6974 15.69931326  4776,6737.23,91.724,361.443,356.748,0.0
56481.0,STARLINK-6222,PAYLOAD,2023-06-08 10:48:34,15.69925037,0.0003402,69.9996,164.5306,263.4313,96.6496,8.9272e-06,8.61e-06,0.0,0 STARLINK-6222,1 56481U 23064AK  23159.45040363  .00000861  00000-0  89272-5 0  9992,2 56481  69.9996 164.5306 0003402 263.4313  96.6496 15.69925037  4887,6737.248,91.724,361.405,356.821,0.0
56481.0,STARLINK-6222,PAYLOAD,2023-06-09 09:44:51,15.6992395,0.0003379,69.9982,161.8453,262.0494,98.0318,1.3269e-05,1.383e-05,0.0,0 STARLINK-6222,1 56481U 23064AK  23160.40615600  .00001383  00000-0  13269-4 0  9993,2 56481  69.9982 161.8453 0003379 262.0494  98.0318 15.69923950  4682,6737.252,91.724,361.393,356.84,0.0
56481.0,STARLINK-6222,PAYLOAD,2023-06-09 23:30:38,15.69921638,0.0003279,69.9967,160.2313,267.0907,92.9914,5.4978e-06,4.48e-06,0.0,0 STARLINK-6222,1 56481U 23064AK  23160.97960976  .00000448  00000-0  54978-5 0  9998,2 56481  69.9967 160.2313 0003279 267.0907  92.9914 15.69921638  5122,6737.258,91.724,361.332,356.914,0.0
56481.0,STARLINK-6222,PAYLOAD,2023-06-10 10:12:53,15.69932951,0.0003421,69.9968,158.9773,266.5925,93.4879,1.992e-05,2.184e-05,0.0,0 STARLINK-6222,1 56481U 23064AK  23161.42561580  .00002184  00000-0  19920-4 0  9993,2 56481  69.9968 158.9773 0003421 266.5925  93.4879 15.69932951  5193,6737.226,91.724,361.396,356.786,0.0
